NORAD_CAT_ID,OBJECT_NAME,OBJECT_TYPE,EPOCH,MEAN_MOTION,ECCENTRICITY,INCLINATION,RA_OF_ASC_NODE,ARG_OF_PERICENTER,MEAN_ANOMALY,BSTAR,MEAN_MOTION_DOT,MEAN_MOTION_DDOT,TLE_LINE0,TLE_LINE1,TLE_LINE2,SEMIMAJOR_AXIS,PERIOD,APOGEE,PERIGEE,DECAYED
55741.0,STARLINK-5592,PAYLOAD,2024-03-18 12:34:51,14.98340134,0.0002735,69.9994,262.8838,266.8382,93.2465,-2.4568e-05,-3.86e-06,0.0,0 STARLINK-5592,1 55741U 23028A   24078.52421031 -.00000386  00000-0 -24568-4 0  9994,2 55741  69.9994 262.8838 0002735 266.8382  93.2465 14.98340134 58008,6950.162,96.106,573.927,570.126,0.0
55741.0,STARLINK-5592,PAYLOAD,2024-03-18 22:11:40,14.98337723,0.0002792,69.9993,261.8741,267.4575,92.6264,-5.349e-05,-7.31e-06,0.0,0 STARLINK-5592,1 55741U 23028A   24078.92477005 -.00000731  00000-0 -53490-4 0  9990,2 55741  69.9993 261.8741 0002792 267.4575  92.6264 14.98337723 58261,6950.169,96.107,573.974,570.094,0.0
55741.0,STARLINK-5592,PAYLOAD,2024-03-19 11:00:44,14.98340798,0.0002816,69.9994,260.5271,268.039,92.0447,-8.4655e-06,-1.94e-06,0.0,0 STARLINK-5592,1 55741U 23028A   24079.45884399 -.00000194  00000-0 -84655-5 0  9998,2 55741  69.9994 260.5271 0002816 268.0390  92.0447 14.98340798 58347,6950.159,96.106,573.982,570.067,0.0
55741.0,STARLINK-5592,PAYLOAD,2024-03-19 20:37:32,14.98339737,0.0002844,69.9992,259.5172,267.9868,92.0965,-1.8347e-05,-3.12e-06,0.0,0 STARLINK-5592,1 55741U 23028A   24079.85940240 -.00000312  00000-0 -18347-4 0  9996,2 55741  69.9992 259.5172 0002844 267.9868  92.0965 14.98339737 58203,6950.163,96.106,574.004,570.051,0.0
55741.0,STARLINK-5592,PAYLOAD,2024-03-20 11:02:45,14.98327901,0.0002736,69.9994,258.0027,266.5785,93.5061,1.3159e-05,6.4e-07,0.0,0 STARLINK-5592,1 55741U 23028A   24080.46024752  .00000064  00000-0  13159-4 0  9994,2 55741  69.9994 258.0027 0002736 266.5785  93.5061 14.98327901 58293,6950.199,96.107,573.966,570.163,0.0
55741.0,STARLINK-5592,PAYLOAD,2024-03-20 14:15:01,14.98326043,0.0002782,69.9992,257.6658,266.459,93.6251,-1.2355e-05,-2.4e-06,0.0,0 STARLINK-5592,1 55741U 23028A   24080.59376970 -.00000240  00000-0 -12355-4 0  9995,2 55741  69.9992 257.6658 0002782 266.4590  93.6251 14.98326043 58513,6950.205,96.107,574.004,570.137,0.0
55741.0,STARLINK-5592,PAYLOAD,2024-03-20 22:15:42,14.98324862,0.0003034,69.9996,256.8246,270.2244,89.8567,-5.0957e-05,-7.01e-06,0.0,0 STARLINK-5592,1 55741U 23028A   24080.92757211 -.00000701  00000-0 -50957-4 0  9995,2 55741  69.9996 256.8246 0003034 270.2244  89.8567 14.98324862 58560,6950.209,96.107,574.182,569.965,0.0
55741.0,STARLINK-5592,PAYLOAD,2024-03-21 12:40:54,14.98330957,0.0003192,69.9988,255.3089,269.2542,90.8251,1.1621e-05,4.6e-07,0.0,0 STARLINK-5592,1 55741U 23028A   24081.52840697  .00000046  00000-0  11621-4 0  9998,2 55741  69.9988 255.3089 0003192 269.2542  90.8251 14.98330957 58456,6950.19,96.107,574.273,569.836,0.0
55741.0,STARLINK-5592,PAYLOAD,2024-03-21 14:17:02,14.98332308,0.0003158,69.9993,255.141,271.7415,88.3382,3.1751e-05,2.86e-06,0.0,0 STARLINK-5592,1 55741U 23028A   24081.59516587  .00000286  00000-0  31751-4 0  9995,2 55741  69.9993 255.1410 0003158 271.7415  88.3382 14.98332308 58669,6950.186,96.107,574.246,569.856,0.0
55741.0,STARLINK-5592,PAYLOAD,2024-03-21 20:41:34,14.98337027,0.0003026,69.9991,254.4673,270.6138,89.4674,6.1971e-05,6.47e-06,0.0,0 STARLINK-5592,1 55741U 23028A   24081.86220161  .00000647  00000-0  61971-4 0  9993,2 55741  69.9991 254.4673 0003026 270.6138  89.4674 14.98337027 58708,6950.171,96.107,574.139,569.933,0.0
55741.0,STARLINK-5592,PAYLOAD,2024-03-22 14:19:02,14.98332014,0.0003127,69.9992,252.6155,271.0854,88.9947,0.00015425,1.748e-05,0.0,0 STARLINK-5592,1 55741U 23028A   24082.59656124  .00001748  00000-0  15425-3 0  9991,2 55741  69.9992 252.6155 0003127 271.0854  88.9947 14.98332014 58816,6950.187,96.107,574.225,569.878,0.0
55741.0,STARLINK-5592,PAYLOAD,2024-03-22 20:43:34,14.98334902,0.0003078,69.9994,251.9423,270.3714,89.7092,0.00018133,2.072e-05,0.0,0 STARLINK-5592,1 55741U 23028A   24082.86359871  .00002072  00000-0  18133-3 0  9990,2 55741  69.9994 251.9423 0003078 270.3714  89.7092 14.98334902 58650,6950.178,96.107,574.182,569.903,0.0
55741.0,STARLINK-5592,PAYLOAD,2024-03-23 12:44:56,14.98331094,0.0002883,69.9999,250.2595,268.9232,91.1596,-9.7868e-06,-2.1e-06,0.0,0 STARLINK-5592,1 55741U 23028A   24083.53120608 -.00000210  00000-0 -97868-5 0  9997,2 55741  69.9999 250.2595 0002883 268.9232  91.1596 14.98331094 58754,6950.19,96.107,574.058,570.051,0.0
55741.0,STARLINK-5592,PAYLOAD,2024-03-23 20:45:36,14.9833112,0.0002819,70.0,249.4175,266.8383,93.2453,-8.6128e-06,-1.96e-06,0.0,0 STARLINK-5592,1 55741U 23028A   24083.86500488 -.00000196  00000-0 -86128-5 0  9991,2 55741  70.0000 249.4175 0002819 266.8383  93.2453 14.98331120 59001,6950.189,96.107,574.014,570.095,0.0
55741.0,STARLINK-5592,PAYLOAD,2024-03-24 12:46:56,14.98337358,0.0002904,69.9999,247.7337,269.5461,90.5365,3.739e-05,3.53e-06,0.0,0 STARLINK-5592,1 55741U 23028A   24084.53259938  .00000353  00000-0  37390-4 0  9996,2 55741  69.9999 247.7337 0002904 269.5461  90.5365 14.98337358 58907,6950.17,96.107,574.053,570.017,0.0
55741.0,STARLINK-5592,PAYLOAD,2024-03-24 14:23:04,14.98337539,0.0002903,69.9999,247.5654,269.6438,90.4388,3.9654e-05,3.8e-06,0.0,0 STARLINK-5592,1 55741U 23028A   24084.59935896  .00000380  00000-0  39654-4 0  9991,2 55741  69.9999 247.5654 0002903 269.6438  90.4388 14.98337539 59110,6950.17,96.107,574.052,570.017,0.0
55741.0,STARLINK-5592,PAYLOAD,2024-03-24 20:47:36,14.98346587,0.0002864,69.9999,246.8923,269.7655,90.3176,0.00015131,1.714e-05,0.0,0 STARLINK-5592,1 55741U 23028A   24084.86639091  .00001714  00000-0  15131-3 0  9994,2 55741  69.9999 246.8923 0002864 269.7655  90.3176 14.98346587 58957,6950.142,96.106,573.997,570.016,0.0
55741.0,STARLINK-5592,PAYLOAD,2024-03-25 12:48:57,14.98330128,0.0002794,69.9998,245.209,270.2388,89.8451,9.1824e-05,1.003e-05,0.0,0 STARLINK-5592,1 55741U 23028A   24085.53400031  .00001003  00000-0  91824-4 0  9994,2 55741  69.9998 245.2090 0002794 270.2388  89.8451 14.98330128 59051,6950.192,96.107,573.999,570.116,0.0
55741.0,STARLINK-5592,PAYLOAD,2024-03-25 20:49:38,14.98328414,0.0002587,70.0005,244.3698,258.133,101.9539,5.1941e-05,5.27e-06,0.0,0 STARLINK-5592,1 55741U 23028A   24085.86780146  .00000527  00000-0  51941-4 0  9994,2 55741  70.0005 244.3698 0002587 258.1330 101.9539 14.98328414 59305,6950.198,96.107,573.861,570.265,0.0
55741.0,STARLINK-5592,PAYLOAD,2024-03-26 12:50:59,14.98322852,0.0002879,70.0,242.685,272.4868,87.5961,-0.00011497,-1.464e-05,0.0,0 STARLINK-5592,1 55741U 23028A   24086.53541082 -.00001464  00000-0 -11497-3 0  9997,2 55741  70.0000 242.6850 0002879 272.4868  87.5961 14.98322852 59207,6950.215,96.107,574.081,570.079,0.0
55741.0,STARLINK-5592,PAYLOAD,2024-03-26 14:27:07,14.9831978,0.0002908,70.0009,242.5182,270.4481,89.6345,-4.5397e-05,-6.34e-06,0.0,0 STARLINK-5592,1 55741U 23028A   24086.60217085 -.00000634  00000-0 -45397-4 0  9993,2 55741  70.0009 242.5182 0002908 270.4481  89.6345 14.98319780 59413,6950.224,96.108,574.111,570.068,0.0
55741.0,STARLINK-5592,PAYLOAD,2024-03-26 20:51:39,14.98323826,0.0002642,70.0009,241.8451,267.5033,92.5823,-8.787e-05,-1.141e-05,0.0,0 STARLINK-5592,1 55741U 23028A   24086.86921026 -.00001141  00000-0 -87870-4 0  9994,2 55741  70.0009 241.8451 0002642 267.5033  92.5823 14.98323826 59453,6950.212,96.107,573.913,570.241,0.0
55741.0,STARLINK-5592,PAYLOAD,2024-03-27 03:16:11,14.9834289,0.0002571,70.0009,241.1718,269.6344,90.4521,-0.00036889,-4.493e-05,0.0,0 STARLINK-5592,1 55741U 23028A   24087.13624457 -.00004493  00000-0 -36889-3 0  9999,2 55741  70.0009 241.1718 0002571 269.6344  90.4521 14.98342890 59297,6950.153,96.106,573.805,570.231,0.0
55741.0,STARLINK-5592,PAYLOAD,2024-03-27 12:53:00,14.98321016,0.0003142,69.9995,240.1595,274.1013,85.9787,-1.7544e-05,-3.02e-06,0.0,0 STARLINK-5592,1 55741U 23028A   24087.53681106 -.00000302  00000-0 -17544-4 0  9990,2 55741  69.9995 240.1595 0003142 274.1013  85.9787 14.98321016 59356,6950.221,96.108,574.269,569.902,0.0
55741.0,STARLINK-5592,PAYLOAD,2024-03-27 14:29:08,14.98319458,0.0003186,69.9994,239.9911,274.0446,86.0348,-3.526e-05,-5.14e-06,0.0,0 STARLINK-5592,1 55741U 23028A   24087.60357291 -.00000514  00000-0 -35260-4 0  9993,2 55741  69.9994 239.9911 0003186 274.0446  86.0348 14.98319458 59565,6950.225,96.108,574.305,569.876,0.0
55741.0,STARLINK-5592,PAYLOAD,2024-03-27 19:17:33,14.98315579,0.00031,69.9997,239.4859,273.4392,86.6412,-5.5809e-05,-7.59e-06,0.0,0 STARLINK-5592,1 55741U 23028A   24087.80385767 -.00000759  00000-0 -55809-4 0  9996,2 55741  69.9997 239.4859 0003100 273.4392  86.6412 14.98315579 59594,6950.237,96.108,574.257,569.948,0.0
55741.0,STARLINK-5592,PAYLOAD,2024-03-28 12:55:01,14.98325833,0.0003244,69.9996,237.6344,270.4849,89.5938,8.8797e-05,9.67e-06,0.0,0 STARLINK-5592,1 55741U 23028A   24088.53821225  .00000967  00000-0  88797-4 0  9992,2 55741  69.9996 237.6344 0003244 270.4849  89.5938 14.98325833 59505,6950.206,96.107,574.325,569.816,0.0
55741.0,STARLINK-5592,PAYLOAD,2024-03-28 19:19:33,14.98331917,0.0003033,70.0002,236.9621,269.8832,90.198,0.00017382,1.982e-05,0.0,0 STARLINK-5592,1 55741U 23028A   24088.80524704  .00001982  00000-0  17382-3 0  9993,2 55741  70.0002 236.9621 0003033 269.8832  90.1980 14.98331917 59545,6950.187,96.107,574.16,569.944,0.0
55741.0,STARLINK-5592,PAYLOAD,2024-03-29 12:57:01,14.98326985,0.000328,70.0001,235.1099,267.8774,92.201,0.00038013,4.445e-05,0.0,0 STARLINK-5592,1 55741U 23028A   24089.53960351  .00004445  00000-0  38013-3 0  9997,2 55741  70.0001 235.1099 0003280 267.8774  92.2010 14.98326985 59851,6950.202,96.107,574.347,569.788,0.0
55741.0,STARLINK-5592,PAYLOAD,2024-03-30 03:22:14,14.98335853,0.0003059,70.0003,233.5955,268.7481,91.3327,0.0001839,2.102e-05,0.0,0 STARLINK-5592,1 55741U 23028A   24090.14044101  .00002102  00000-0  18390-3 0  9996,2 55741  70.0003 233.5955 0003059 268.7481  91.3327 14.98335853 59748,6950.175,96.107,574.166,569.914,0.0
